[{"OBJECT_NAME":"YAOGAN-40 02B","OBJECT_ID":"2025-096B","EPOCH":"2026-03-09T23:00:58.966848","MEAN_MOTION":14.12426787,"ECCENTRICITY":0.00021775,"INCLINATION":85.9909,"RA_OF_ASC_NODE":232.3937,"ARG_OF_PERICENTER":96.5499,"MEAN_ANOMALY":263.5932,"EPHEMERIS_TYPE":0,"CLASSIFICATION_TYPE":"U","NORAD_CAT_ID":63919,"ELEMENT_SET_NO":999,"REV_AT_EPOCH":4256,"BSTAR":0.00013302659,"MEAN_MOTION_DOT":2.64e-6,"MEAN_MOTION_DDOT":0},{"OBJECT_NAME":"CZ-6A DEB","OBJECT_ID":"2022-151TC","EPOCH":"2026-03-09T20:54:58.028544","MEAN_MOTION":13.97031337,"ECCENTRICITY":0.01377273,"INCLINATION":98.873,"RA_OF_ASC_NODE":43.3878,"ARG_OF_PERICENTER":1.0439,"MEAN_ANOMALY":359.0987,"EPHEMERIS_TYPE":0,"CLASSIFICATION_TYPE":"U","NORAD_CAT_ID":54963,"ELEMENT_SET_NO":999,"REV_AT_EPOCH":16923,"BSTAR":0.00014596097,"MEAN_MOTION_DOT":1.78e-6,"MEAN_MOTION_DDOT":0}]
